SatCatId,ObjectName,LaunchYear,OrbitalPeriod,LaunchMass,StatusCode,Status,UcsData,OrbitClass,LaunchSiteCountry,Owner,UseType,Purpose,LaunchVehicleClass,TLE1,TLE2
50498,ONEWEB-0426,2021,96.47,148.0,+,Active,1,LEO,Kazakhstan,UK,Commercial,Communications,Soyuz,1 50498U 21132AF  22240.58334491  .00009957  00000+0  96124-3 0  9996,2 50498  87.2148 269.7803 0003251  97.1965  64.6806 14.92759195 37801
50499,ONEWEB-0427,2021,96.46,148.0,+,Active,1,LEO,Kazakhstan,UK,Commercial,Communications,Soyuz,1 50499U 21132AG  22240.58334491  .00004920  00000+0  47298-3 0  9990,2 50499  87.2085 269.5735 0003970  74.7352 343.4580 14.92831456 37834
50500,ONEWEB-0429,2021,96.47,148.0,+,Active,1,LEO,Kazakhstan,UK,Commercial,Communications,Soyuz,1 50500U 21132AH  22240.58334491  .00009688  00000+0  93529-3 0  9997,2 50500  87.2117 269.6709 0003744 124.1046  41.4840 14.92755617 37810
50501,ONEWEB-0430,2021,96.46,148.0,+,Active,1,LEO,Kazakhstan,UK,Commercial,Communications,Soyuz,1 50501U 21132AJ  22240.58334491  .00008243  00000+0  79449-3 0  9999,2 50501  87.2254 270.1059 0005281  93.2189   2.9613 14.92802719 37782
50502,ONEWEB-0432,2021,96.47,148.0,+,Active,1,LEO,Kazakhstan,UK,Commercial,Communications,Soyuz,1 50502U 21132AK  22240.58334491  .00004267  00000+0  41025-3 0  9991,2 50502  87.2103 269.6351 0004542 143.5762 244.8542 14.92799519 37836
50503,ONEWEB-0440,2021,96.46,148.0,+,Active,1,LEO,Kazakhstan,UK,Commercial,Communications,Soyuz,1 50503U 21132AL  22240.58334491  .00007950  00000+0  76599-3 0  9998,2 50503  87.2141 269.7350 0003547 121.0416 351.3247 14.92814419 37811
50504,ONEWEB-0450,2021,96.47,148.0,+,Active,1,LEO,Kazakhstan,UK,Commercial,Communications,Soyuz,1 50504U 21132AM  22240.58334491  .00007532  00000+0  72666-3 0  9996,2 50504  87.2229 270.0378 0004697 104.2058 193.3710 14.92753511 37809
50572,OBJECT A,2021,94.38,-1.0,+,Active,0,LEO,PRC,China,Unknown,Unknown,Unknown,1 50572U 21134A   22240.48474831 -.00001886  00000+0 -75045-4 0  9998,2 50572  88.9977 155.7521 0015717  73.1709  44.6323 15.25779245 36898
50574,TJS-9,2021,1436.15,-1.0,+,Active,0,GEO,PRC,China,Unknown,Unknown,Unknown,1 50574U 21135A   22239.83729868 -.00000302  00000+0  00000+0 0  9996,2 50574   0.0598 280.1354 0002577 139.2549 355.2544  1.00267913  2506
50803,STARLINK-3321,2022,95.44,260.0,+,Active,1,LEO,USA,USA,Commercial,Communications,Falcon,1 50803U 22001A   22240.15939131  .00000811  00000+0  69039-4 0  9993,2 50803  53.2168 198.0415 0002285  55.2873 304.8334 15.08850485 37007
50804,STARLINK-3323,2022,95.44,260.0,+,Active,1,LEO,USA,USA,Commercial,Communications,Falcon,1 50804U 22001B   22240.12719532  .00001518  00000+0  11346-3 0  9994,2 50804  53.2186 188.1940 0002085  54.5131 305.6055 15.08849981 37118
50805,STARLINK-3333,2022,95.44,260.0,+,Active,1,LEO,USA,USA,Commercial,Communications,Falcon,1 50805U 22001C   22240.12351881  .00002139  00000+0  15242-3 0  9993,2 50805  53.2176 188.2086 0001922  64.6168 295.5023 15.08850886 37131
50806,STARLINK-3335,2022,95.44,260.0,+,Active,1,LEO,USA,USA,Commercial,Communications,Falcon,1 50806U 22001D   22240.25232128  .00000864  00000+0  72398-4 0  9999,2 50806  53.2159 187.6213 0002152  60.0474 300.0732 15.08844737 37153
50807,STARLINK-3353,2022,95.44,260.0,+,Active,1,LEO,USA,USA,Commercial,Communications,Falcon,1 50807U 22001E   22239.57520178  .00000692  00000+0  61563-4 0  9999,2 50807  53.2174 190.6859 0001786  57.7997 302.3168 15.08835932 35788
50808,STARLINK-3355,2022,95.44,260.0,+,Active,1,LEO,USA,USA,Commercial,Communications,Falcon,1 50808U 22001F   22240.17871344  .00002346  00000+0  16543-3 0  9997,2 50808  53.2165 187.9608 0002117  58.1425 301.9772 15.08844890 37129
50809,STARLINK-3232,2022,95.44,260.0,+,Active,1,LEO,USA,USA,Commercial,Communications,Falcon,1 50809U 22001G   22240.18239674  .00002188  00000+0  15550-3 0  9994,2 50809  53.2170 187.9459 0002346  61.9732 298.1498 15.08850054 37151
50810,STARLINK-3348,2022,95.44,260.0,+,Active,1,LEO,USA,USA,Commercial,Communications,Falcon,1 50810U 22001H   22239.57887925  .00001624  00000+0  12012-3 0  9999,2 50810  53.2173 190.6705 0002352  58.6501 301.4721 15.08841074 35781
50811,STARLINK-3347,2022,95.44,260.0,+,Active,1,LEO,USA,USA,Commercial,Communications,Falcon,1 50811U 22001J   22240.16768164  .00000638  00000+0  58217-4 0  9992,2 50811  53.2172 188.0229 0002411  56.3270 303.7952 15.08836686 37154
50812,STARLINK-3338,2022,95.44,260.0,+,Active,1,LEO,USA,USA,Commercial,Communications,Falcon,1 50812U 22001K   22240.13183630 -.00000140  00000+0  93285-5 0  9993,2 50812  53.2163 188.1639 0002433  57.8220 302.3008 15.08843430 37114
50813,STARLINK-3349,2022,95.44,260.0,+,Active,1,LEO,USA,USA,Commercial,Communications,Falcon,1 50813U 22001L   22240.16495217 -.00000099  00000+0  11896-4 0  9994,2 50813  53.2170 188.0355 0002081  60.6426 299.4773 15.08848459 37128
50814,STARLINK-3324,2022,95.44,260.0,+,Active,1,LEO,USA,USA,Commercial,Communications,Falcon,1 50814U 22001M   22239.61475785  .00001656  00000+0  12213-3 0  9993,2 50814  53.2185 200.4924 0002263  54.4091 305.7112 15.08845448 35656
50815,STARLINK-3234,2022,95.44,260.0,+,Active,1,LEO,USA,USA,Commercial,Communications,Falcon,1 50815U 22001N   22240.15571273 -.00000069  00000+0  13759-4 0  9999,2 50815  53.2179 198.0591 0002580  50.6348 309.4873 15.08848467 37007
50816,STARLINK-3342,2022,95.44,260.0,+,Active,1,LEO,USA,USA,Commercial,Communications,Falcon,1 50816U 22001P   22240.19252541 -.00000450  00000+0 -10168-4 0  9994,2 50816  53.2176 197.9113 0002499  51.9544 308.1674 15.08836115 37017
50817,STARLINK-3341,2022,95.44,260.0,+,Active,1,LEO,USA,USA,Commercial,Communications,Falcon,1 50817U 22001Q   22240.15203596  .00001517  00000+0  11338-3 0  9999,2 50817  53.2177 198.0803 0002353  56.1049 304.0167 15.08847347 36989
50818,STARLINK-3336,2022,95.44,260.0,+,Active,1,LEO,USA,USA,Commercial,Communications,Falcon,1 50818U 22001R   22240.33235840  .00001862  00000+0  13505-3 0  9998,2 50818  53.2160 197.2644 0001877  59.6069 300.5108 15.08841526 37032
50819,STARLINK-3327,2022,95.44,260.0,+,Active,1,LEO,USA,USA,Commercial,Communications,Falcon,1 50819U 22001S   22240.20723326  .00002605  00000+0  18169-3 0  9993,2 50819  53.2184 197.8315 0002205  52.7896 307.3298 15.08844790 36948
50820,STARLINK-3339,2022,95.44,260.0,+,Active,1,LEO,USA,USA,Commercial,Communications,Falcon,1 50820U 22001T   22240.12260409 -.00000012  00000+0  17348-4 0  9994,2 50820  53.2173 198.2239 0002358  54.2403 305.8808 15.08840468 37004
50821,STARLINK-3346,2022,95.44,260.0,+,Active,1,LEO,USA,USA,Commercial,Communications,Falcon,1 50821U 22001U   22240.17412138  .00000181  00000+0  29498-4 0  9993,2 50821  53.2144 197.9921 0002127  57.8483 302.2715 15.08846742 36983
50822,STARLINK-3343,2022,95.44,260.0,+,Active,1,LEO,USA,USA,Commercial,Communications,Falcon,1 50822U 22001V   22240.18148086 -.00000281  00000+0  46944-6 0  9992,2 50822  53.2161 197.9632 0002248  54.4538 305.6664 15.08842746 36980
50823,STARLINK-3334,2022,95.44,260.0,+,Active,1,LEO,USA,USA,Commercial,Communications,Falcon,1 50823U 22001W   22240.14835675  .00001746  00000+0  12773-3 0  9992,2 50823  53.2186 198.0991 0001992  69.7037 290.4169 15.08846772 37015
50824,STARLINK-3340,2022,95.44,260.0,+,Active,1,LEO,USA,USA,Commercial,Communications,Falcon,1 50824U 22001X   22240.17780397 -.00000535  00000+0 -15480-4 0  9992,2 50824  53.2159 197.9772 0002089  55.4815 304.6374 15.08839525 37008
50825,STARLINK-3332,2022,95.44,260.0,+,Active,1,LEO,USA,USA,Commercial,Communications,Falcon,1 50825U 22001Y   22240.18516257  .00000664  00000+0  59848-4 0  9993,2 50825  53.2161 197.9414 0002187  54.3823 305.7372 15.08838329 37002
50826,STARLINK-3337,2022,95.44,260.0,+,Active,1,LEO,USA,USA,Commercial,Communications,Falcon,1 50826U 22001Z   22240.16307887 -.00000093  00000+0  12272-4 0  9996,2 50826  53.2174 198.0215 0002315  63.3959 296.7270 15.08845171 37011
50827,STARLINK-3329,2022,95.44,260.0,+,Active,1,LEO,USA,USA,Commercial,Communications,Falcon,1 50827U 22001AA  22240.32868070 -.00000092  00000+0  12324-4 0  9998,2 50827  53.2160 197.2991 0002094  59.1070 301.0128 15.08840468 37027
50828,STARLINK-3290,2022,95.44,260.0,+,Active,1,LEO,USA,USA,Commercial,Communications,Falcon,1 50828U 22001AB  22240.19347140  .00001626  00000+0  12019-3 0  9997,2 50828  53.2161 197.9060 0002026  53.6304 306.4875 15.08848056 37015
50829,STARLINK-3294,2022,95.44,260.0,+,Active,1,LEO,USA,USA,Commercial,Communications,Falcon,1 50829U 22001AC  22240.20355613  .00000880  00000+0  73384-4 0  9998,2 50829  53.2173 197.8516 0002150  58.0216 302.0985 15.08847226 37004
50830,STARLINK-3278,2022,95.44,260.0,+,Active,1,LEO,USA,USA,Commercial,Communications,Falcon,1 50830U 22001AD  22240.35353185 -.00001921  00000+0 -10261-3 0  9991,2 50830  53.2178 207.1844 0002744  48.7035 311.4193 15.08834895 36893
50831,STARLINK-3299,2022,95.44,260.0,+,Active,1,LEO,USA,USA,Commercial,Communications,Falcon,1 50831U 22001AE  22239.89539215  .00001539  00000+0  11476-3 0  9991,2 50831  53.2177 199.2256 0002508  55.7760 304.3470 15.08848449 35698
50832,STARLINK-3328,2022,95.44,260.0,+,Active,1,LEO,USA,USA,Commercial,Communications,Falcon,1 50832U 22001AF  22240.15112701 -.00000590  00000+0 -18959-4 0  9992,2 50832  53.2166 208.0923 0001818  69.1532 290.9655 15.08841302 36840
50833,STARLINK-3316,2022,95.44,260.0,+,Active,1,LEO,USA,USA,Commercial,Communications,Falcon,1 50833U 22001AG  22240.10052284  .00000127  00000+0  26177-4 0  9992,2 50833  53.2171 198.3038 0005452  98.6203 261.5407 15.08851471 37023
50834,STARLINK-3331,2022,95.44,260.0,+,Active,1,LEO,USA,USA,Commercial,Communications,Falcon,1 50834U 22001AH  22240.14008775  .00001289  00000+0  99068-4 0  9992,2 50834  53.2154 208.1444 0001796  53.4551 306.6607 15.08840642 36860
50835,STARLINK-3310,2022,95.44,260.0,+,Active,1,LEO,USA,USA,Commercial,Communications,Falcon,1 50835U 22001AJ  22240.13272405 -.00000369  00000+0 -50926-5 0  9996,2 50835  53.2166 208.1607 0002267  56.0257 304.0951 15.08844750 36847
